{ "type": "Feature", "properties": { "objectid": 384, "área": 8319614.02734375, "nome": "Santíssimo", "regiao_adm": "CAMPO GRANDE            ", "area_plane": "5", "codbairro": "143", "codra": 18, "codbnum": 143, "link": "Santíssimo                &area=143               ", "rp": "Campo Grande", "cod_rp": "5.2", "codbairro_long": 143, "st_areashape": 8319636.3345545027, "st_perimetershape": 15804.040719539249 }, "geometry": { "type": "Polygon", "coordinates": [ [ [ -43.514629234703321, -22.860521075422259 ], [ -43.514820024421454, -22.860514729921402 ], [ -43.515134691307537, -22.860507370950053 ], [ -43.515430041060959, -22.860493055704236 ], [ -43.515901748716949, -22.860472889772804 ], [ -43.516654706055839, -22.860444870920077 ], [ -43.517148269859597, -22.860422466534377 ], [ -43.517475383822223, -22.860408806566458 ], [ -43.518247466306363, -22.860387369789294 ], [ -43.519035688593789, -22.860369509636769 ], [ -43.51981790764583, -22.860365860372163 ], [ -43.520363421581031, -22.860369852328823 ], [ -43.520607402091997, -22.860365435924255 ], [ -43.520726291032524, -22.860366088824474 ], [ -43.521367640235503, -22.860375844408789 ], [ -43.52197980180388, -22.860381080574019 ], [ -43.522153356850851, -22.860391451429621 ], [ -43.52293127117948, -22.860416467020485 ], [ -43.523712339306655, -22.860447288237893 ], [ -43.524488827972725, -22.860487185883201 ], [ -43.525270937063191, -22.860530110438422 ], [ -43.526051310359861, -22.860571481537153 ], [ -43.526828525107234, -22.860607399773201 ], [ -43.527604681373788, -22.860651252159396 ], [ -43.528335178753366, -22.860690885229374 ], [ -43.528732604002613, -22.860709100530183 ], [ -43.528928727172747, -22.86072337743968 ], [ -43.529696823548136, -22.860764617226661 ], [ -43.530667302853296, -22.860809345385299 ], [ -43.531425758369963, -22.860850036253137 ], [ -43.532390809083594, -22.860901208335569 ], [ -43.532848188712968, -22.860927010993823 ], [ -43.533117195443609, -22.860942678246236 ], [ -43.533609078993635, -22.860977106737899 ], [ -43.533774364093574, -22.860986306779626 ], [ -43.533902608171687, -22.860987217595422 ], [ -43.534385029015084, -22.861004486918706 ], [ -43.534455402796638, -22.861012541004929 ], [ -43.535046571560031, -22.861040293081814 ], [ -43.535270509401499, -22.861050934754644 ], [ -43.535641483065412, -22.861073223583823 ], [ -43.536117883776164, -22.861106780240601 ], [ -43.536599947603207, -22.86113009161808 ], [ -43.536749767225544, -22.861136617506411 ], [ -43.537036580969975, -22.861154698907896 ], [ -43.537196561099151, -22.861168181768633 ], [ -43.537731307794765, -22.861195404261839 ], [ -43.538086594546762, -22.861217544149696 ], [ -43.538438045246586, -22.861242992388952 ], [ -43.538644667344059, -22.861250940534326 ], [ -43.539014516611743, -22.861268877877528 ], [ -43.53954651571101, -22.861289205094582 ], [ -43.539790821198736, -22.86130002829109 ], [ -43.540185922386463, -22.861317381832357 ], [ -43.540465353554225, -22.861333673352842 ], [ -43.540698490458418, -22.861340958913175 ], [ -43.540907582984083, -22.861354889414233 ], [ -43.541111062177841, -22.861365064334432 ], [ -43.541067791584283, -22.861501946167113 ], [ -43.541065526611391, -22.861714077319768 ], [ -43.541070481250465, -22.862044136341009 ], [ -43.541177925847066, -22.862304417230934 ], [ -43.541353698169935, -22.862518179843313 ], [ -43.541446203383096, -22.862589745829176 ], [ -43.541587424354042, -22.862671601819262 ], [ -43.541393388610871, -22.862972291299531 ], [ -43.541337366977309, -22.86306218254656 ], [ -43.541229415311811, -22.863241915782904 ], [ -43.541104245002821, -22.863454904137029 ], [ -43.541013748366076, -22.863587650790087 ], [ -43.54094954226651, -22.86364992151044 ], [ -43.540850652132306, -22.86377473453841 ], [ -43.540739303681562, -22.863879743556023 ], [ -43.540662077741523, -22.863965467048214 ], [ -43.540601975754164, -22.864035632699633 ], [ -43.540533059895743, -22.864137146331377 ], [ -43.540498225198462, -22.864223259518216 ], [ -43.540437828745723, -22.864320969500259 ], [ -43.540381762451375, -22.864414744401934 ], [ -43.540329802474922, -22.864516414396597 ], [ -43.540290762738167, -22.864594629695425 ], [ -43.540268735171423, -22.864676886449534 ], [ -43.540242332926447, -22.864767049909801 ], [ -43.540193958031466, -22.864925653251362 ], [ -43.540163491747435, -22.865003947178582 ], [ -43.540145360047113, -22.865113786755341 ], [ -43.540131713059623, -22.865196207085884 ], [ -43.540083857998987, -22.865305772079058 ], [ -43.540036394667439, -22.865387884769017 ], [ -43.539980440560669, -22.865461972664722 ], [ -43.539928730780602, -22.865540072466132 ], [ -43.539872958966868, -22.865606393964338 ], [ -43.539813022787307, -22.865660846804186 ], [ -43.539748799718289, -22.865715259365523 ], [ -43.539676322284762, -22.865757766617556 ], [ -43.539620618853895, -22.865808371962515 ], [ -43.539539536671612, -22.865862629662807 ], [ -43.539471291013285, -22.865901290297554 ], [ -43.539390152777216, -22.865951573525336 ], [ -43.539311299319991, -22.86599799412722 ], [ -43.539222102817703, -22.866009006404358 ], [ -43.539115963292907, -22.866027630159337 ], [ -43.538958814483536, -22.86604975924023 ], [ -43.538763604880216, -22.866067654998435 ], [ -43.538576875381032, -22.866085539910337 ], [ -43.538411304151445, -22.866111564040061 ], [ -43.537838428499924, -22.866157330416208 ], [ -43.537456612750695, -22.866181363995995 ], [ -43.537244658202532, -22.866179415184611 ], [ -43.537015283007349, -22.866220476593792 ], [ -43.536578184085087, -22.866255744221927 ], [ -43.536340329435887, -22.866296816048866 ], [ -43.536102392013255, -22.866327592617214 ], [ -43.536019256738413, -22.866536808744222 ], [ -43.535984813456615, -22.866731393907088 ], [ -43.535894715877262, -22.86683551102437 ], [ -43.535796691357334, -22.86692456278772 ], [ -43.535698664750988, -22.867013615368144 ], [ -43.53560120243818, -22.867050199013747 ], [ -43.535511747209547, -22.867094352478649 ], [ -43.535446218794434, -22.867161214676251 ], [ -43.535437486461625, -22.867221103600833 ], [ -43.535436842601754, -22.867281157309048 ], [ -43.535468732421705, -22.867333923163699 ], [ -43.535459500807839, -22.867431290122916 ], [ -43.535356333008039, -22.86800004875116 ], [ -43.535306673778344, -22.868104628114299 ], [ -43.535289211734813, -22.868224405947384 ], [ -43.535312191361633, -22.86834455706968 ], [ -43.535303217743305, -22.868426932242379 ], [ -43.535179959493114, -22.86860570514721 ], [ -43.535211912785428, -22.868643480215155 ], [ -43.536342575336199, -22.872608616928861 ], [ -43.535976604084325, -22.873534863752862 ], [ -43.535362496579218, -22.874968655277129 ], [ -43.533860379374929, -22.874574496228838 ], [ -43.533159329416193, -22.877067234364787 ], [ -43.533067135056804, -22.87743821105434 ], [ -43.532611670995969, -22.881726958584448 ], [ -43.532569821356702, -22.881875143238016 ], [ -43.532524019481023, -22.881974064300092 ], [ -43.532476004984488, -22.882070169672978 ], [ -43.532440679519645, -22.882155464037293 ], [ -43.532362000336569, -22.882320644622638 ], [ -43.532260689799486, -22.88245093708559 ], [ -43.532173995675343, -22.882536387551745 ], [ -43.532115284355349, -22.882584796231246 ], [ -43.532069939204163, -22.882613820258715 ], [ -43.531945175912256, -22.882695307400905 ], [ -43.531846035368645, -22.882750566953721 ], [ -43.531778317104781, -22.882766472862404 ], [ -43.531718295182692, -22.882773502313881 ], [ -43.531588409524147, -22.882787565080811 ], [ -43.531440047751516, -22.882797484124975 ], [ -43.53129820981335, -22.882798974592216 ], [ -43.531275984500532, -22.882799220853641 ], [ -43.531143955696606, -22.88278580861256 ], [ -43.531041545080541, -22.882782875508219 ], [ -43.530868607393508, -22.882766737777537 ], [ -43.530246640004847, -22.882811745395944 ], [ -43.529569505177626, -22.882585025569671 ], [ -43.529277447057567, -22.882361955813831 ], [ -43.529038922329754, -22.882172978890075 ], [ -43.528893927058846, -22.882087552384224 ], [ -43.528806957784411, -22.882071845705898 ], [ -43.528622924279681, -22.882045125476267 ], [ -43.528376233894669, -22.882035436506303 ], [ -43.528180195420454, -22.882028473925878 ], [ -43.527945888767029, -22.882036149068181 ], [ -43.527779038265905, -22.882043275308622 ], [ -43.527608652844727, -22.882052625605596 ], [ -43.527418260564289, -22.88208265314999 ], [ -43.527289558582623, -22.882113521938102 ], [ -43.527141849580275, -22.882162189006387 ], [ -43.52697755931532, -22.882212056131628 ], [ -43.526683743112912, -22.882296758486184 ], [ -43.526506747427959, -22.882340636908562 ], [ -43.526290055329035, -22.882405009906154 ], [ -43.526161345729015, -22.882490519955255 ], [ -43.525888278943285, -22.882603410724457 ], [ -43.525717382398447, -22.882696295410192 ], [ -43.52562852402589, -22.882719948533573 ], [ -43.525562029300289, -22.882848119885082 ], [ -43.525508143174328, -22.882972885860127 ], [ -43.525460710943598, -22.883185951024643 ], [ -43.525448994337985, -22.883341363520575 ], [ -43.52548057898035, -22.883440280205189 ], [ -43.525511375497096, -22.883603043935906 ], [ -43.525515118857221, -22.883716784969543 ], [ -43.525501343307099, -22.883828013532131 ], [ -43.525490524066825, -22.883909197396576 ], [ -43.525491481664822, -22.884046123488151 ], [ -43.525505534807863, -22.884143704378435 ], [ -43.525527422475612, -22.884201889466429 ], [ -43.52557196268527, -22.88424755025428 ], [ -43.525631420468521, -22.884310781031367 ], [ -43.525678104614443, -22.88439249637003 ], [ -43.525717198275316, -22.884482181129268 ], [ -43.525741044618314, -22.884593760392242 ], [ -43.525747417795458, -22.884698313695932 ], [ -43.525744380332625, -22.884753919434207 ], [ -43.525728745673455, -22.884811846852401 ], [ -43.525700434792157, -22.884878868821513 ], [ -43.525674886202339, -22.884925053687237 ], [ -43.525676744234389, -22.884987749373742 ], [ -43.525695832699427, -22.885070293472111 ], [ -43.52576482924465, -22.885180034466497 ], [ -43.525819245723596, -22.885240869350522 ], [ -43.525911082414048, -22.885320565728328 ], [ -43.52596052738371, -22.885381353566835 ], [ -43.526007213015021, -22.885463070642817 ], [ -43.526051488504322, -22.885533113850755 ], [ -43.526075784855131, -22.885602971812602 ], [ -43.526146913564453, -22.885704693508451 ], [ -43.525835975367379, -22.885695399027078 ], [ -43.525776651849533, -22.885691777301876 ], [ -43.525711681242917, -22.88568774373195 ], [ -43.525532838500098, -22.885667480236187 ], [ -43.525270304583934, -22.885625666898338 ], [ -43.525036699263033, -22.885577078791705 ], [ -43.524786893935826, -22.885512081559362 ], [ -43.524565654604494, -22.885446175877444 ], [ -43.524447434557359, -22.885399830053128 ], [ -43.524333926842935, -22.885359309835042 ], [ -43.524104398113295, -22.88527598525306 ], [ -43.523879894027338, -22.885188012446093 ], [ -43.523730303069868, -22.885130989529447 ], [ -43.523554390432096, -22.885065503385484 ], [ -43.523329958181563, -22.884979877775713 ], [ -43.523055582678381, -22.884870577002633 ], [ -43.522806079810735, -22.884777763532263 ], [ -43.522630290027998, -22.884709929360376 ], [ -43.522461773328743, -22.884636563085937 ], [ -43.52237194148961, -22.884777070652913 ], [ -43.522314595042545, -22.884888078976406 ], [ -43.522256988786864, -22.885013981361936 ], [ -43.522125408166296, -22.885310345071641 ], [ -43.521894133140819, -22.88591059732255 ], [ -43.521687974491606, -22.886414441486917 ], [ -43.521571811847998, -22.886762969189139 ], [ -43.520980600738994, -22.88650458875588 ], [ -43.520566011923663, -22.886741148449278 ], [ -43.520065241106295, -22.886942856079546 ], [ -43.519126371249108, -22.887445203709408 ], [ -43.518147133575894, -22.887750644730851 ], [ -43.517789963930625, -22.887833114469657 ], [ -43.517328847815662, -22.88752454370989 ], [ -43.51704673605974, -22.887427442287976 ], [ -43.516697377688814, -22.887266766419145 ], [ -43.515702510780066, -22.887100061143659 ], [ -43.514632883539569, -22.88704942867496 ], [ -43.513995253307961, -22.887161420037 ], [ -43.512842464963462, -22.887819057234584 ], [ -43.512413484703181, -22.888247468523051 ], [ -43.511854641026154, -22.888910565656218 ], [ -43.511301365273283, -22.88906262304506 ], [ -43.509932071409885, -22.890111258442499 ], [ -43.508813477525301, -22.891516084366877 ], [ -43.512876515612554, -22.89755509340262 ], [ -43.511732695620026, -22.896908481497764 ], [ -43.51089446279093, -22.896255514397534 ], [ -43.50799773890904, -22.894354684201868 ], [ -43.506586700777703, -22.893020676198066 ], [ -43.503746930860864, -22.892604713305253 ], [ -43.502758901791395, -22.892132819265218 ], [ -43.503595468967866, -22.889740958749574 ], [ -43.504712043056742, -22.886717993394594 ], [ -43.505394756848709, -22.884643750055638 ], [ -43.506483781584997, -22.881556021713191 ], [ -43.506535714522265, -22.881272741209813 ], [ -43.506592082866909, -22.881047123739474 ], [ -43.506662672119418, -22.880902742019789 ], [ -43.506795668499883, -22.880586625803094 ], [ -43.506853231598356, -22.880403197085684 ], [ -43.506926123980797, -22.880199588859217 ], [ -43.50704531994699, -22.879888491580001 ], [ -43.508124321908582, -22.877487583887895 ], [ -43.507945974972714, -22.877396679981505 ], [ -43.507719867748499, -22.877288076748535 ], [ -43.5072327126678, -22.877066299299496 ], [ -43.506699057099652, -22.876854377783324 ], [ -43.506358552497346, -22.876734403457686 ], [ -43.505815603262391, -22.876561408468149 ], [ -43.505406604193801, -22.876457134552773 ], [ -43.505152268387974, -22.876398840300251 ], [ -43.504892053763733, -22.87634356016013 ], [ -43.504530243609068, -22.876282537563522 ], [ -43.504444468912979, -22.876265113081928 ], [ -43.504451294670879, -22.87621143938744 ], [ -43.504497826187368, -22.876127434057771 ], [ -43.504538000691369, -22.876054837035401 ], [ -43.50456360770648, -22.875985988330999 ], [ -43.50459140962414, -22.875903702531708 ], [ -43.504614908656329, -22.875840524694919 ], [ -43.504628021436652, -22.875773451473115 ], [ -43.50465193976666, -22.875671982513293 ], [ -43.504713637630971, -22.87552950484417 ], [ -43.504732628521609, -22.875495183355415 ], [ -43.504761973442527, -22.875458972302695 ], [ -43.504824887038517, -22.8753923700041 ], [ -43.504885541450939, -22.875344893065442 ], [ -43.504962373157198, -22.875324572157584 ], [ -43.505041539699029, -22.875286841599717 ], [ -43.505112083355748, -22.875279828923546 ], [ -43.505151713992177, -22.875247597992637 ], [ -43.5051792144234, -22.875201796201655 ], [ -43.505186749436668, -22.875172243940149 ], [ -43.505211195511706, -22.875120543003135 ], [ -43.505230374070557, -22.875068882864568 ], [ -43.505235143345814, -22.875007422753804 ], [ -43.505231845039752, -22.87493450811483 ], [ -43.505205727238213, -22.874863184370017 ], [ -43.505185789686415, -22.874788127318773 ], [ -43.505194639866318, -22.87473637009904 ], [ -43.505213799544038, -22.874686696695164 ], [ -43.505216449653886, -22.874640573706817 ], [ -43.505214871123016, -22.874588806066559 ], [ -43.505197098397744, -22.874511781545813 ], [ -43.505185464404072, -22.874434903231766 ], [ -43.505169302127499, -22.874380021752209 ], [ -43.505171011517227, -22.87434851722535 ], [ -43.505199097142075, -22.874266867043342 ], [ -43.505211803940085, -22.874219118993274 ], [ -43.505135230922193, -22.874109029535603 ], [ -43.505089928420666, -22.874080695680938 ], [ -43.505048751248793, -22.874058272828613 ], [ -43.504966125787838, -22.874002585022748 ], [ -43.504884944851263, -22.87393959529858 ], [ -43.504813677694571, -22.873879047815869 ], [ -43.504791763933142, -22.873841995364529 ], [ -43.504710987635477, -22.873742068106498 ], [ -43.504622778167821, -22.873644512115142 ], [ -43.504585849666661, -22.87362574076818 ], [ -43.504536673470376, -22.873586081055745 ], [ -43.504497189872701, -22.873560331462819 ], [ -43.504488968866291, -22.873528012858362 ], [ -43.504490339106049, -22.873509600725004 ], [ -43.504515416496737, -22.87348915456495 ], [ -43.504508139963143, -22.873468312951111 ], [ -43.504490970065241, -22.873451986140644 ], [ -43.504476437305975, -22.873417349422731 ], [ -43.504467553704245, -22.873329661022673 ], [ -43.504466054371974, -22.873235176367647 ], [ -43.504456567942917, -22.873193634707285 ], [ -43.504455781720132, -22.87314946362466 ], [ -43.504487598489604, -22.873083380903292 ], [ -43.504582671377698, -22.873008230240227 ], [ -43.504765052470326, -22.872890097934896 ], [ -43.504887282753451, -22.87282676262555 ], [ -43.504994353297782, -22.872786224550385 ], [ -43.505180768830797, -22.872753476691507 ], [ -43.505337697341332, -22.872690376826991 ], [ -43.505587430466491, -22.872536118542833 ], [ -43.50571011273464, -22.872404869529703 ], [ -43.506220180715921, -22.871795341881946 ], [ -43.506519324269085, -22.871436351808388 ], [ -43.506655411683383, -22.871308932535875 ], [ -43.506724389567182, -22.871257738808524 ], [ -43.506882888962522, -22.87115753193412 ], [ -43.507135164891132, -22.871011151311102 ], [ -43.507235156115378, -22.870958263324393 ], [ -43.507332951745788, -22.870918900922813 ], [ -43.507453444730928, -22.870889324778783 ], [ -43.507551073491832, -22.870865312314734 ], [ -43.507707528694731, -22.87086289860305 ], [ -43.507912310797103, -22.870897423322425 ], [ -43.508151567446021, -22.870987995143423 ], [ -43.50841721237304, -22.871134446873825 ], [ -43.509118534078347, -22.871511583415028 ], [ -43.509233936810411, -22.871564505620075 ], [ -43.509287596921972, -22.87158614214934 ], [ -43.509343452387242, -22.871594342383631 ], [ -43.509459486040008, -22.871589649722804 ], [ -43.509659352285865, -22.871503196928945 ], [ -43.509686344014042, -22.871494780562642 ], [ -43.50958828187597, -22.871371030397892 ], [ -43.509360099435163, -22.871015673066257 ], [ -43.509315888945792, -22.870896223359999 ], [ -43.509259273691121, -22.870761304824072 ], [ -43.509187026899795, -22.870549471565287 ], [ -43.508914071482948, -22.869742481179564 ], [ -43.508825384047867, -22.869519024623173 ], [ -43.508674522662986, -22.869294894790418 ], [ -43.508670795320576, -22.869270384625946 ], [ -43.508805051257596, -22.869105013149913 ], [ -43.508892807889318, -22.868869120721104 ], [ -43.508998800415121, -22.868694723590057 ], [ -43.50908540807545, -22.868564037515323 ], [ -43.509585186495329, -22.867849726564838 ], [ -43.509911939907475, -22.867388118733274 ], [ -43.510008956904507, -22.86716983417352 ], [ -43.510020034860126, -22.867020827765238 ], [ -43.510488862770345, -22.866543029110002 ], [ -43.510612322069356, -22.866500292209675 ], [ -43.510727382068666, -22.866361109149427 ], [ -43.510852561877861, -22.866160608637919 ], [ -43.511054417225722, -22.86587313115739 ], [ -43.511257029544986, -22.865515574545302 ], [ -43.511648083265534, -22.864795812958459 ], [ -43.511831691806329, -22.86443807763915 ], [ -43.512112600577112, -22.86384444717342 ], [ -43.512353594753961, -22.863434593454013 ], [ -43.512506648742047, -22.863278244902638 ], [ -43.512640417091589, -22.863156668554225 ], [ -43.512830806409852, -22.863053230915103 ], [ -43.513058526423094, -22.862994036665331 ], [ -43.513380388259321, -22.862979523494204 ], [ -43.513588443719051, -22.862990227091739 ], [ -43.513767947310221, -22.863009425121628 ], [ -43.514061168105215, -22.86302092548366 ], [ -43.514307032412887, -22.863031981273771 ], [ -43.514455216027777, -22.863045467171109 ], [ -43.514623105967566, -22.860672297167682 ], [ -43.514626171793893, -22.860596642054798 ], [ -43.514629234703321, -22.860521075422259 ] ] ] } }